{
    "links": {
        "self": "http://www.neowsapp.com/rest/v1/neo/3744852?api_key=iIulBulltgU6a56xZRHN4H3l9WmuAYTsLGpBGhQ2"
    },
    "id": "3744852",
    "neo_reference_id": "3744852",
    "name": "(2016 DR2)",
    "designation": "2016 DR2",
    "nasa_jpl_url": "http://ssd.jpl.nasa.gov/sbdb.cgi?sstr=3744852",
    "absolute_magnitude_h": 25.6,
    "estimated_diameter": {
        "kilometers": {
            "estimated_diameter_min": 0.0201629919,
            "estimated_diameter_max": 0.0450858206
        },
        "meters": {
            "estimated_diameter_min": 20.1629919443,
            "estimated_diameter_max": 45.0858206172
        },
        "miles": {
            "estimated_diameter_min": 0.0125286985,
            "estimated_diameter_max": 0.0280150214
        },
        "feet": {
            "estimated_diameter_min": 66.1515504905,
            "estimated_diameter_max": 147.9193637137
        }
    },
    "is_potentially_hazardous_asteroid": false,
    "close_approach_data": [
        {
            "close_approach_date": "2016-02-12",
            "close_approach_date_full": "2016-Feb-12 11:08",
            "epoch_date_close_approach": 1455275280000,
            "relative_velocity": {
                "kilometers_per_second": "2.6491887843",
                "kilometers_per_hour": "9537.0796233339",
                "miles_per_hour": "5925.9703915099"
            },
            "miss_distance": {
                "astronomical": "0.1005674536",
                "lunar": "39.1207394504",
                "kilometers": "15044676.849883832",
                "miles": "9348328.7067556016"
            },
            "orbiting_body": "Earth"
        }
    ],
    "orbital_data": {
        "orbit_id": "5",
        "orbit_determination_date": "2017-04-06 08:28:00",
        "first_observation_date": "2016-02-28",
        "last_observation_date": "2016-03-06",
        "data_arc_in_days": 7,
        "observations_used": 13,
        "orbit_uncertainty": "8",
        "minimum_orbit_intersection": ".100711",
        "jupiter_tisserand_invariant": "5.110",
        "epoch_osculation": "2457447.5",
        "eccentricity": ".1388552621652981",
        "semi_major_axis": "1.256880684060488",
        "inclination": "5.02815673875577",
        "ascending_node_longitude": "156.1474465842727",
        "orbital_period": "514.6826220895692",
        "perihelion_distance": "1.08235618716477",
        "perihelion_argument": "334.2037850880321",
        "aphelion_distance": "1.431405180956207",
        "perihelion_time": "2457417.563298397567",
        "mean_anomaly": "20.93953072112923",
        "mean_motion": ".6994601809915972",
        "equinox": "J2000",
        "orbit_class": {
            "orbit_class_type": "AMO",
            "orbit_class_description": "Near-Earth asteroid orbits similar to that of 1221 Amor",
            "orbit_class_range": "1.017 AU < q (perihelion) < 1.3 AU"
        }
    },
    "is_sentry_object": false
}